ONEWEB-0291             
1 49081U 21075G   26190.71632524  .00000049  00000+0  93302-4 0  9998
2 49081  87.9139   1.3801 0002169  86.0825 274.0554 13.17646901236579
ONEWEB-0293             
1 49082U 21075H   26190.74162970 -.00000017  00000+0 -76040-4 0  9992
2 49082  87.9131   1.3777 0001982  92.9407 267.1951 13.17649513236608
ONEWEB-0294             
1 49083U 21075J   26190.66798051  .00000246  00000+0  64953-3 0  9990
2 49083  87.8963 346.1890 0002150  99.4647 260.6725 13.12442268237525
ONEWEB-0295             
1 49084U 21075K   26190.74079184  .00000015  00000+0  46691-5 0  9994
2 49084  87.9137   1.3818 0002069  84.5418 275.5950 13.17649571236569
ONEWEB-0296             
1 49085U 21075L   26190.72389160  .00000473  00000+0  12781-2 0  9999
2 49085  87.8967 346.1863 0002111  88.0069 272.1302 13.12443740237536
ONEWEB-0297             
1 49086U 21075M   26190.67813900 -.00000127  00000+0 -38866-3 0  9999
2 49086  87.8952 346.2031 0001869  91.6028 268.5315 13.12442056238132
ONEWEB-0298             
1 49087U 21075N   26190.74516294  .00000002  00000+0 -26823-4 0  9996
2 49087  87.9136   1.3794 0001757  88.9663 271.1670 13.17648575236594
ONEWEB-0299             
1 49088U 21075P   26190.74669102  .00000017  00000+0  11671-4 0  9994
2 49088  87.9146   1.3614 0001895  86.5254 273.6095 13.17647788236571
ONEWEB-0300             
1 49089U 21075Q   26190.67051916  .00000025  00000+0  32878-4 0  9996
2 49089  87.8963 346.1866 0001472  90.4478 269.6819 13.12440835238154
ONEWEB-0301             
1 49090U 21075R   26189.81581787  .00000331  00000+0  88526-3 0  9996
2 49090  87.8960 346.3539 0001480  96.5069 263.6228 13.12442364237408
ONEWEB-0302             
1 49091U 21075S   26190.71711056  .00000316  00000+0  84289-3 0  9997
2 49091  87.8959 346.1874 0002171  95.6866 264.4510 13.12442818237508
ONEWEB-0304             
1 49092U 21075T   26190.72137608  .00000009  00000+0 -98624-5 0  9994
2 49092  87.9140   1.3869 0001982  87.2548 272.8811 13.17647520236541
ONEWEB-0305             
1 49093U 21075U   26190.71462740  .00000031  00000+0  46542-4 0  9997
2 49093  87.9146   1.3743 0002019  80.3165 279.8195 13.17647664236574
ONEWEB-0308             
1 49094U 21075V   26190.71032828 -.00000007  00000+0 -55228-4 0  9994
2 49094  87.8959 346.1815 0001833  97.7515 262.3822 13.12443407237513
ONEWEB-0309             
1 49095U 21075W   26190.71800580  .00000091  00000+0  20183-3 0  9995
2 49095  87.9137   1.3801 0002342  95.5376 264.6022 13.17650755236545
ONEWEB-0310             
1 49096U 21075X   26190.72558296  .00000368  00000+0  98645-3 0  9996
2 49096  87.8952 346.1972 0001818  95.7262 264.4074 13.12443232238140
