{"fetched_at":"2026-07-10T07:58:41.598Z","source":"https://celestrak.org/NORAD/elements/gp.php?GROUP=oneweb&FORMAT=JSON","constellation":"oneweb","records":[{"OBJECT_NAME":"ONEWEB-0291","OBJECT_ID":"2021-075G","EPOCH":"2026-07-09T17:11:30.500736","CLASSIFICATION_TYPE":"U","MEAN_MOTION":13.17646901,"ECCENTRICITY":0.0002169,"INCLINATION":87.9139,"RA_OF_ASC_NODE":1.3801,"ARG_OF_PERICENTER":86.0825,"MEAN_ANOMALY":274.0554,"EPHEMERIS_TYPE":0,"NORAD_CAT_ID":49081,"ELEMENT_SET_NO":999,"REV_AT_EPOCH":23657,"BSTAR":0.000093302,"MEAN_MOTION_DOT":4.9e-7,"MEAN_MOTION_DDOT":0},{"OBJECT_NAME":"ONEWEB-0293","OBJECT_ID":"2021-075H","EPOCH":"2026-07-09T17:47:56.806080","CLASSIFICATION_TYPE":"U","MEAN_MOTION":13.17649513,"ECCENTRICITY":0.0001982,"INCLINATION":87.9131,"RA_OF_ASC_NODE":1.3777,"ARG_OF_PERICENTER":92.9407,"MEAN_ANOMALY":267.1951,"EPHEMERIS_TYPE":0,"NORAD_CAT_ID":49082,"ELEMENT_SET_NO":999,"REV_AT_EPOCH":23660,"BSTAR":-0.00007604,"MEAN_MOTION_DOT":-1.7e-7,"MEAN_MOTION_DDOT":0},{"OBJECT_NAME":"ONEWEB-0294","OBJECT_ID":"2021-075J","EPOCH":"2026-07-09T16:01:53.516064","CLASSIFICATION_TYPE":"U","MEAN_MOTION":13.12442268,"ECCENTRICITY":0.000215,"INCLINATION":87.8963,"RA_OF_ASC_NODE":346.189,"ARG_OF_PERICENTER":99.4647,"MEAN_ANOMALY":260.6725,"EPHEMERIS_TYPE":0,"NORAD_CAT_ID":49083,"ELEMENT_SET_NO":999,"REV_AT_EPOCH":23752,"BSTAR":0.00064953,"MEAN_MOTION_DOT":0.00000246,"MEAN_MOTION_DDOT":0},{"OBJECT_NAME":"ONEWEB-0295","OBJECT_ID":"2021-075K","EPOCH":"2026-07-09T17:46:44.414976","CLASSIFICATION_TYPE":"U","MEAN_MOTION":13.17649571,"ECCENTRICITY":0.0002069,"INCLINATION":87.9137,"RA_OF_ASC_NODE":1.3818,"ARG_OF_PERICENTER":84.5418,"MEAN_ANOMALY":275.595,"EPHEMERIS_TYPE":0,"NORAD_CAT_ID":49084,"ELEMENT_SET_NO":999,"REV_AT_EPOCH":23656,"BSTAR":0.0000046691,"MEAN_MOTION_DOT":1.5e-7,"MEAN_MOTION_DDOT":0},{"OBJECT_NAME":"ONEWEB-0296","OBJECT_ID":"2021-075L","EPOCH":"2026-07-09T17:22:24.234240","CLASSIFICATION_TYPE":"U","MEAN_MOTION":13.1244374,"ECCENTRICITY":0.0002111,"INCLINATION":87.8967,"RA_OF_ASC_NODE":346.1863,"ARG_OF_PERICENTER":88.0069,"MEAN_ANOMALY":272.1302,"EPHEMERIS_TYPE":0,"NORAD_CAT_ID":49085,"ELEMENT_SET_NO":999,"REV_AT_EPOCH":23753,"BSTAR":0.0012781,"MEAN_MOTION_DOT":0.00000473,"MEAN_MOTION_DDOT":0},{"OBJECT_NAME":"ONEWEB-0297","OBJECT_ID":"2021-075M","EPOCH":"2026-07-09T16:16:31.209600","CLASSIFICATION_TYPE":"U","MEAN_MOTION":13.12442056,"ECCENTRICITY":0.0001869,"INCLINATION":87.8952,"RA_OF_ASC_NODE":346.2031,"ARG_OF_PERICENTER":91.6028,"MEAN_ANOMALY":268.5315,"EPHEMERIS_TYPE":0,"NORAD_CAT_ID":49086,"ELEMENT_SET_NO":999,"REV_AT_EPOCH":23813,"BSTAR":-0.00038866,"MEAN_MOTION_DOT":-0.00000127,"MEAN_MOTION_DDOT":0},{"OBJECT_NAME":"ONEWEB-0298","OBJECT_ID":"2021-075N","EPOCH":"2026-07-09T17:53:02.078016","CLASSIFICATION_TYPE":"U","MEAN_MOTION":13.17648575,"ECCENTRICITY":0.0001757,"INCLINATION":87.9136,"RA_OF_ASC_NODE":1.3794,"ARG_OF_PERICENTER":88.9663,"MEAN_ANOMALY":271.167,"EPHEMERIS_TYPE":0,"NORAD_CAT_ID":49087,"ELEMENT_SET_NO":999,"REV_AT_EPOCH":23659,"BSTAR":-0.000026823,"MEAN_MOTION_DOT":2e-8,"MEAN_MOTION_DDOT":0},{"OBJECT_NAME":"ONEWEB-0299","OBJECT_ID":"2021-075P","EPOCH":"2026-07-09T17:55:14.104128","CLASSIFICATION_TYPE":"U","MEAN_MOTION":13.17647788,"ECCENTRICITY":0.0001895,"INCLINATION":87.9146,"RA_OF_ASC_NODE":1.3614,"ARG_OF_PERICENTER":86.5254,"MEAN_ANOMALY":273.6095,"EPHEMERIS_TYPE":0,"NORAD_CAT_ID":49088,"ELEMENT_SET_NO":999,"REV_AT_EPOCH":23657,"BSTAR":0.000011671,"MEAN_MOTION_DOT":1.7e-7,"MEAN_MOTION_DDOT":0},{"OBJECT_NAME":"ONEWEB-0300","OBJECT_ID":"2021-075Q","EPOCH":"2026-07-09T16:05:32.855424","CLASSIFICATION_TYPE":"U","MEAN_MOTION":13.12440835,"ECCENTRICITY":0.0001472,"INCLINATION":87.8963,"RA_OF_ASC_NODE":346.1866,"ARG_OF_PERICENTER":90.4478,"MEAN_ANOMALY":269.6819,"EPHEMERIS_TYPE":0,"NORAD_CAT_ID":49089,"ELEMENT_SET_NO":999,"REV_AT_EPOCH":23815,"BSTAR":0.000032878,"MEAN_MOTION_DOT":2.5e-7,"MEAN_MOTION_DDOT":0},{"OBJECT_NAME":"ONEWEB-0301","OBJECT_ID":"2021-075R","EPOCH":"2026-07-08T19:34:46.663968","CLASSIFICATION_TYPE":"U","MEAN_MOTION":13.12442364,"ECCENTRICITY":0.00014804,"INCLINATION":87.896,"RA_OF_ASC_NODE":346.3539,"ARG_OF_PERICENTER":96.5069,"MEAN_ANOMALY":263.6228,"EPHEMERIS_TYPE":0,"NORAD_CAT_ID":49090,"ELEMENT_SET_NO":999,"REV_AT_EPOCH":23740,"BSTAR":0.00088525798,"MEAN_MOTION_DOT":0.00000331,"MEAN_MOTION_DDOT":0},{"OBJECT_NAME":"ONEWEB-0302","OBJECT_ID":"2021-075S","EPOCH":"2026-07-09T17:12:38.352384","CLASSIFICATION_TYPE":"U","MEAN_MOTION":13.12442818,"ECCENTRICITY":0.0002171,"INCLINATION":87.8959,"RA_OF_ASC_NODE":346.1874,"ARG_OF_PERICENTER":95.6866,"MEAN_ANOMALY":264.451,"EPHEMERIS_TYPE":0,"NORAD_CAT_ID":49091,"ELEMENT_SET_NO":999,"REV_AT_EPOCH":23750,"BSTAR":0.00084289,"MEAN_MOTION_DOT":0.00000316,"MEAN_MOTION_DDOT":0},{"OBJECT_NAME":"ONEWEB-0304","OBJECT_ID":"2021-075T","EPOCH":"2026-07-09T17:18:46.893312","CLASSIFICATION_TYPE":"U","MEAN_MOTION":13.1764752,"ECCENTRICITY":0.0001982,"INCLINATION":87.914,"RA_OF_ASC_NODE":1.3869,"ARG_OF_PERICENTER":87.2548,"MEAN_ANOMALY":272.8811,"EPHEMERIS_TYPE":0,"NORAD_CAT_ID":49092,"ELEMENT_SET_NO":999,"REV_AT_EPOCH":23654,"BSTAR":-0.0000098624,"MEAN_MOTION_DOT":9e-8,"MEAN_MOTION_DDOT":0},{"OBJECT_NAME":"ONEWEB-0305","OBJECT_ID":"2021-075U","EPOCH":"2026-07-09T17:09:03.807360","CLASSIFICATION_TYPE":"U","MEAN_MOTION":13.17647664,"ECCENTRICITY":0.0002019,"INCLINATION":87.9146,"RA_OF_ASC_NODE":1.3743,"ARG_OF_PERICENTER":80.3165,"MEAN_ANOMALY":279.8195,"EPHEMERIS_TYPE":0,"NORAD_CAT_ID":49093,"ELEMENT_SET_NO":999,"REV_AT_EPOCH":23657,"BSTAR":0.000046542,"MEAN_MOTION_DOT":3.1e-7,"MEAN_MOTION_DDOT":0},{"OBJECT_NAME":"ONEWEB-0308","OBJECT_ID":"2021-075V","EPOCH":"2026-07-09T17:02:52.363392","CLASSIFICATION_TYPE":"U","MEAN_MOTION":13.12443407,"ECCENTRICITY":0.0001833,"INCLINATION":87.8959,"RA_OF_ASC_NODE":346.1815,"ARG_OF_PERICENTER":97.7515,"MEAN_ANOMALY":262.3822,"EPHEMERIS_TYPE":0,"NORAD_CAT_ID":49094,"ELEMENT_SET_NO":999,"REV_AT_EPOCH":23751,"BSTAR":-0.000055228,"MEAN_MOTION_DOT":-7e-8,"MEAN_MOTION_DDOT":0},{"OBJECT_NAME":"ONEWEB-0309","OBJECT_ID":"2021-075W","EPOCH":"2026-07-09T17:13:55.701120","CLASSIFICATION_TYPE":"U","MEAN_MOTION":13.17650755,"ECCENTRICITY":0.0002342,"INCLINATION":87.9137,"RA_OF_ASC_NODE":1.3801,"ARG_OF_PERICENTER":95.5376,"MEAN_ANOMALY":264.6022,"EPHEMERIS_TYPE":0,"NORAD_CAT_ID":49095,"ELEMENT_SET_NO":999,"REV_AT_EPOCH":23654,"BSTAR":0.00020183,"MEAN_MOTION_DOT":9.1e-7,"MEAN_MOTION_DDOT":0},{"OBJECT_NAME":"ONEWEB-0310","OBJECT_ID":"2021-075X","EPOCH":"2026-07-09T17:24:50.367744","CLASSIFICATION_TYPE":"U","MEAN_MOTION":13.12443232,"ECCENTRICITY":0.0001818,"INCLINATION":87.8952,"RA_OF_ASC_NODE":346.1972,"ARG_OF_PERICENTER":95.7262,"MEAN_ANOMALY":264.4074,"EPHEMERIS_TYPE":0,"NORAD_CAT_ID":49096,"ELEMENT_SET_NO":999,"REV_AT_EPOCH":23814,"BSTAR":0.00098645,"MEAN_MOTION_DOT":0.00000368,"MEAN_MOTION_DDOT":0}]}
